{
  "links" : {
    "next" : "https://api.nasa.gov/neo/rest/v1/neo/browse?page=26&size=20&api_key=jqAGvNAwUIBu4fl9FSOjdm3V4F7hIglRzI6pdX9d",
    "prev" : "https://api.nasa.gov/neo/rest/v1/neo/browse?page=24&size=20&api_key=jqAGvNAwUIBu4fl9FSOjdm3V4F7hIglRzI6pdX9d",
    "self" : "https://api.nasa.gov/neo/rest/v1/neo/browse?page=25&size=20&api_key=jqAGvNAwUIBu4fl9FSOjdm3V4F7hIglRzI6pdX9d"
  },
  "page" : {
    "size" : 20,
    "total_elements" : 20750,
    "total_pages" : 1038,
    "number" : 25
  },
  "near_earth_objects" : [ {
    "links" : {
      "self" : "https://api.nasa.gov/neo/rest/v1/neo/3313737?api_key=jqAGvNAwUIBu4fl9FSOjdm3V4F7hIglRzI6pdX9d"
    },
    "neo_reference_id" : "3313737",
    "name" : "(2006 BB9)",
    "designation" : "2006 BB9",
    "nasa_jpl_url" : "http://ssd.jpl.nasa.gov/sbdb.cgi?sstr=3313737",
    "absolute_magnitude_h" : 25.8,
    "estimated_diameter" : {
      "kilometers" : {
        "estimated_diameter_min" : 0.0183888672,
        "estimated_diameter_max" : 0.0411187571
      },
      "meters" : {
        "estimated_diameter_min" : 18.388867207,
        "estimated_diameter_max" : 41.1187571041
      },
      "miles" : {
        "estimated_diameter_min" : 0.0114263088,
        "estimated_diameter_max" : 0.0255500032
      },
      "feet" : {
        "estimated_diameter_min" : 60.3309310875,
        "estimated_diameter_max" : 134.9040630575
      }
    },
    "is_potentially_hazardous_asteroid" : false,
    "close_approach_data" : [ {
      "close_approach_date" : "2006-01-19",
      "epoch_date_close_approach" : 1137657600000,
      "relative_velocity" : {
        "kilometers_per_second" : "13.6594236669",
        "kilometers_per_hour" : "49173.925200899",
        "miles_per_hour" : "30554.7648005253"
      },
      "miss_distance" : {
        "astronomical" : "0.0108631447",
        "lunar" : "4.2257633209",
        "kilometers" : "1625103.375",
        "miles" : "1009792.4375"
      },
      "orbiting_body" : "Earth"
    } ],
    "orbital_data" : {
      "orbit_id" : "12",
      "orbit_determination_date" : "2017-04-06 09:09:18",
      "first_observation_date" : "2006-01-24",
      "last_observation_date" : "2006-02-01",
      "data_arc_in_days" : 8,
      "observations_used" : 36,
      "orbit_uncertainty" : "8",
      "minimum_orbit_intersection" : ".00899796",
      "jupiter_tisserand_invariant" : "2.993",
      "epoch_osculation" : "2453763.5",
      "eccentricity" : ".6731289898136185",
      "semi_major_axis" : "2.685904732304378",
      "inclination" : "6.7030481860674",
      "ascending_node_longitude" : "302.345994196089",
      "orbital_period" : "1607.808548684314",
      "perihelion_distance" : ".8779443931127149",
      "perihelion_argument" : "132.2915115972799",
      "aphelion_distance" : "4.493865071496042",
      "perihelion_time" : "2453723.969772268600",
      "mean_anomaly" : "8.851104812789604",
      "mean_motion" : ".2239072558076592",
      "equinox" : "J2000",
      "orbit_class" : {
        "orbit_class_type" : "APO",
        "orbit_class_range" : "a (semi-major axis) > 1.0 AU; q (perihelion) < 1.017 AU",
        "orbit_class_description" : "Near-Earth asteroid orbits which cross the Earth’s orbit similar to that of 1862 Apollo"
      }
    },
    "is_sentry_object" : false
  }, {
    "links" : {
      "self" : "https://api.nasa.gov/neo/rest/v1/neo/3313972?api_key=jqAGvNAwUIBu4fl9FSOjdm3V4F7hIglRzI6pdX9d"
    },
    "neo_reference_id" : "3313972",
    "name" : "(2006 BX26)",
    "designation" : "2006 BX26",
    "nasa_jpl_url" : "http://ssd.jpl.nasa.gov/sbdb.cgi?sstr=3313972",
    "absolute_magnitude_h" : 23.4,
    "estimated_diameter" : {
      "kilometers" : {
        "estimated_diameter_min" : 0.0555334912,
        "estimated_diameter_max" : 0.1241766613
      },
      "meters" : {
        "estimated_diameter_min" : 55.5334911581,
        "estimated_diameter_max" : 124.1766612574
      },
      "miles" : {
        "estimated_diameter_min" : 0.0345069009,
        "estimated_diameter_max" : 0.0771597762
      },
      "feet" : {
        "estimated_diameter_min" : 182.1964991311,
        "estimated_diameter_max" : 407.4037573197
      }
    },
    "is_potentially_hazardous_asteroid" : false,
    "close_approach_data" : [ {
      "close_approach_date" : "2005-12-24",
      "epoch_date_close_approach" : 1135411200000,
      "relative_velocity" : {
        "kilometers_per_second" : "4.8708493623",
        "kilometers_per_hour" : "17535.0577041091",
        "miles_per_hour" : "10895.6029384227"
      },
      "miss_distance" : {
        "astronomical" : "0.1888769138",
        "lunar" : "73.4731216431",
        "kilometers" : "28255584",
        "miles" : "17557206"
      },
      "orbiting_body" : "Earth"
    } ],
    "orbital_data" : {
      "orbit_id" : "9",
      "orbit_determination_date" : "2017-04-06 09:09:17",
      "first_observation_date" : "2006-01-25",
      "last_observation_date" : "2006-02-06",
      "data_arc_in_days" : 12,
      "observations_used" : 22,
      "orbit_uncertainty" : "9",
      "minimum_orbit_intersection" : ".175339",
      "jupiter_tisserand_invariant" : "3.468",
      "epoch_osculation" : "2453763.5",
      "eccentricity" : ".4860834469451475",
      "semi_major_axis" : "2.231502057378307",
      "inclination" : "6.775129174255303",
      "ascending_node_longitude" : "121.9935719049962",
      "orbital_period" : "1217.571192557771",
      "perihelion_distance" : "1.146805845462671",
      "perihelion_argument" : "326.165720964594",
      "aphelion_distance" : "3.316198269293942",
      "perihelion_time" : "2453720.675189879008",
      "mean_anomaly" : "12.66203712587066",
      "mean_motion" : ".2956705958554606",
      "equinox" : "J2000",
      "orbit_class" : {
        "orbit_class_type" : "AMO",
        "orbit_class_range" : "1.017 AU < q (perihelion) < 1.3 AU",
        "orbit_class_description" : "Near-Earth asteroid orbits similar to that of 1221 Amor"
      }
    },
    "is_sentry_object" : false
  }, {
    "links" : {
      "self" : "https://api.nasa.gov/neo/rest/v1/neo/3313975?api_key=jqAGvNAwUIBu4fl9FSOjdm3V4F7hIglRzI6pdX9d"
    },
    "neo_reference_id" : "3313975",
    "name" : "(2006 BW39)",
    "designation" : "2006 BW39",
    "nasa_jpl_url" : "http://ssd.jpl.nasa.gov/sbdb.cgi?sstr=3313975",
    "absolute_magnitude_h" : 23.7,
    "estimated_diameter" : {
      "kilometers" : {
        "estimated_diameter_min" : 0.0483676488,
        "estimated_diameter_max" : 0.1081533507
      },
      "meters" : {
        "estimated_diameter_min" : 48.3676488219,
        "estimated_diameter_max" : 108.1533506775
      },
      "miles" : {
        "estimated_diameter_min" : 0.0300542543,
        "estimated_diameter_max" : 0.0672033557
      },
      "feet" : {
        "estimated_diameter_min" : 158.6865169607,
        "estimated_diameter_max" : 354.8338390368
      }
    },
    "is_potentially_hazardous_asteroid" : false,
    "close_approach_data" : [ {
      "close_approach_date" : "2006-02-01",
      "epoch_date_close_approach" : 1138780800000,
      "relative_velocity" : {
        "kilometers_per_second" : "11.5215809345",
        "kilometers_per_hour" : "41477.6913642187",
        "miles_per_hour" : "25772.6243923947"
      },
      "miss_distance" : {
        "astronomical" : "0.0313200416",
        "lunar" : "12.1834964752",
        "kilometers" : "4685412",
        "miles" : "2911380"
      },
      "orbiting_body" : "Earth"
    } ],
    "orbital_data" : {
      "orbit_id" : "12",
      "orbit_determination_date" : "2017-04-06 09:09:17",
      "first_observation_date" : "2006-01-26",
      "last_observation_date" : "2006-01-31",
      "data_arc_in_days" : 5,
      "observations_used" : 38,
      "orbit_uncertainty" : "8",
      "minimum_orbit_intersection" : ".0158382",
      "jupiter_tisserand_invariant" : "3.667",
      "epoch_osculation" : "2453763.5",
      "eccentricity" : ".5364886890338272",
      "semi_major_axis" : "1.976582292836318",
      "inclination" : "5.795705573777085",
      "ascending_node_longitude" : "308.1050135781584",
      "orbital_period" : "1015.011066962486",
      "perihelion_distance" : ".9161682497850856",
      "perihelion_argument" : "227.1020460804196",
      "aphelion_distance" : "3.036996335887551",
      "perihelion_time" : "2453799.639970997827",
      "mean_anomaly" : "347.182021967354",
      "mean_motion" : ".3546759357780533",
      "equinox" : "J2000",
      "orbit_class" : {
        "orbit_class_type" : "APO",
        "orbit_class_range" : "a (semi-major axis) > 1.0 AU; q (perihelion) < 1.017 AU",
        "orbit_class_description" : "Near-Earth asteroid orbits which cross the Earth’s orbit similar to that of 1862 Apollo"
      }
    },
    "is_sentry_object" : false
  } ]
}